[{"OBJECT_NAME":"STARLINK-2743","OBJECT_ID":"2021-044AW","EPOCH":"2026-03-09T10:18:22.656096","MEAN_MOTION":15.30200308,"ECCENTRICITY":9.944e-5,"INCLINATION":53.1601,"RA_OF_ASC_NODE":66.1547,"ARG_OF_PERICENTER":118.5506,"MEAN_ANOMALY":241.5595,"EPHEMERIS_TYPE":0,"CLASSIFICATION_TYPE":"U","NORAD_CAT_ID":48682,"ELEMENT_SET_NO":999,"REV_AT_EPOCH":26446,"BSTAR":-5.93542e-5,"MEAN_MOTION_DOT":-2.116e-5,"MEAN_MOTION_DDOT":0},{"OBJECT_NAME":"CZ-6A DEB","OBJECT_ID":"2024-140BH","EPOCH":"2026-03-09T12:42:23.031936","MEAN_MOTION":15.05550408,"ECCENTRICITY":0.0121353,"INCLINATION":89.148,"RA_OF_ASC_NODE":290.4372,"ARG_OF_PERICENTER":169.3672,"MEAN_ANOMALY":191.0177,"EPHEMERIS_TYPE":0,"CLASSIFICATION_TYPE":"U","NORAD_CAT_ID":60656,"ELEMENT_SET_NO":999,"REV_AT_EPOCH":8464,"BSTAR":0.002338,"MEAN_MOTION_DOT":0.00039913,"MEAN_MOTION_DDOT":0}]
